IRIDIUM 155             
1 43573U 18061E   26121.36618694 -.00000003  00000+0 -81078-5 0  9996
2 43573  86.3944  76.2486 0002271  86.4189 273.7266 14.34217265406647
IRIDIUM 154             
1 43574U 18061F   26121.34715813  .00000027  00000+0  25977-5 0  9996
2 43574  86.3949  76.3876 0002262  82.0486 278.0967 14.34217712406697
IRIDIUM 163             
1 43575U 18061G   26121.39789772  .00000138  00000+0  42045-4 0  9994
2 43575  86.3945  76.2831 0002237  88.9375 271.2077 14.34217295406679
IRIDIUM 156             
1 43576U 18061H   26121.37252944  .00000012  00000+0 -27611-5 0  9994
2 43576  86.3945  76.3009 0002423  85.3943 274.7529 14.34217557406667
IRIDIUM 164             
1 43577U 18061J   26121.42326904  .00000127  00000+0  38410-4 0  9993
2 43577  86.3947  76.3193 0002213  81.6164 278.5282 14.34218123406719
IRIDIUM 159             
1 43578U 18061K   26121.39155613  .00000264  00000+0  87079-4 0  9994
2 43578  86.3942  76.2707 0002073  87.3117 272.8316 14.34218235406674
IRIDIUM 180             
1 43922U 19002A   26121.25151514  .00000145  00000+0  44683-4 0  9996
2 43922  86.4013  13.2135 0002089  86.5753 273.5682 14.34217609382263
IRIDIUM 176             
1 43923U 19002B   26121.39720794  .00000739  00000+0  11338-3 0  9993
2 43923  86.6135  13.1031 0002383  79.5754 280.5732 14.72247350392369
IRIDIUM 168             
1 43924U 19002C   26121.45447897  .00000283  00000+0  93834-4 0  9997
2 43924  86.4022  13.2028 0001979  96.4279 263.7142 14.34216130382277
IRIDIUM 173             
1 43925U 19002D   26121.44179373 -.00000022  00000+0 -14772-4 0  9995
2 43925  86.4005  13.1005 0002130  87.6951 272.4489 14.34217338382252
IRIDIUM 169             
1 43926U 19002E   26121.51076589  .00000198  00000+0  58068-4 0  9997
2 43926  86.4250  44.6984 0002898  89.5767 270.5764 14.38607010383516
IRIDIUM 172             
1 43927U 19002F   26121.43544648  .00000152  00000+0  47201-4 0  9992
2 43927  86.4013  13.1112 0002123  86.5665 273.5773 14.34216746382265
IRIDIUM 175             
1 43928U 19002G   26121.48788963  .00000114  00000+0  27686-4 0  9991
2 43928  86.4485 310.0557 0004436  46.3255 313.8313 14.43591280392245
IRIDIUM 171             
1 43929U 19002H   26121.41642345 -.00000014  00000+0 -11912-4 0  9994
2 43929  86.4016  13.4199 0002186  81.8675 278.2769 14.34217449382253
IRIDIUM 170             
1 43930U 19002J   26121.40337564  .00000677  00000+0  10346-3 0  9991
2 43930  86.6131  13.1031 0002212  85.6448 274.5022 14.72260027392374
IRIDIUM 167             
1 43931U 19002K   26121.41008118  .00000046  00000+0  94094-5 0  9997
2 43931  86.4011  13.1439 0002465  80.6575 279.4899 14.34217761382255
IRIDIUM 181             
1 56726U 23068S   26121.37844624  .00000361  00000+0  10125-3 0  9996
2 56726  86.4485  76.3537 0002089  81.9217 278.2220 14.43309977155686
IRIDIUM 177             
1 56727U 23068T   26121.33952387  .00001178  00000+0  15146-3 0  9994
2 56727  86.1988 351.0449 0002349  93.0073 267.1417 14.80246151159437
IRIDIUM 174             
1 56728U 23068U   26121.11915651  .00000853  00000+0  13144-3 0  9999
2 56728  86.6141  13.3642 0002356  90.3454 269.8034 14.72252628159091
IRIDIUM 178             
1 56729U 23068V   26121.53137251  .00001321  00000+0  17039-3 0  9996
2 56729  86.6562  44.8491 0002350  80.3341 279.8146 14.80234852159462
IRIDIUM 179             
1 56730U 23068W   26121.52600306  .00001315  00000+0  16969-3 0  9997
2 56730  86.6788  53.6931 0002722  80.1870 279.9659 14.80233068159467
